ORBCOMM FM103           
1 40091U 14040F   24135.68107068  .00002037  00000+0  49001-3 0  9992
2 40091  47.0042  97.5585 0002508 262.0788  97.9812 14.56587852505973
ORBCOMM FM114           
1 41179U 15081A   24135.92030133  .00002420  00000+0  57439-3 0  9991
2 41179  47.0030   5.7123 0001810 304.7187  55.3527 14.56631643446376
ORBCOMM FM119           
1 41180U 15081B   24135.68481209  .00002078  00000+0  49908-3 0  9991
2 41180  46.9998 276.0120 0001066 344.0321  16.0530 14.56576858447598
ORBCOMM FM105           
1 41181U 15081C   24135.55712359  .00001275  00000+0  41203-3 0  9999
2 41181  47.0013 243.8991 0002128 312.5599  47.5101 14.44384657443101
ORBCOMM FM110           
1 41182U 15081D   24135.89758997  .00002455  00000+0  58243-3 0  9998
2 41182  47.0020   5.2278 0001632 151.7772 208.3202 14.56624475446248
ORBCOMM FM118           
1 41183U 15081E   24135.94359508  .00002468  00000+0  58542-3 0  9996
2 41183  47.0043   5.3192 0001650 148.2396 211.8589 14.56613176446358
ORBCOMM FM112           
1 41184U 15081F   24135.66194399  .00002597  00000+0  61373-3 0  9990
2 41184  46.9978 275.3346 0001090 312.0151  48.0641 14.56627009447532
ORBCOMM FM113           
1 41185U 15081G   24135.43336480  .00002251  00000+0  53712-3 0  9990
2 41185  46.9995 276.6786 0000619 314.9748  45.1086 14.56618870447484
